COSMOS 2419 (714)       
1 28915U 05050A   17066.02965929  .00000029  00000-0  00000+0 0  9997
2 28915  65.4465  69.2942 0016556 345.3542 201.9985  2.13110374 87155
COSMOS 2425 (716)       
1 29670U 06062A   17065.90464510 -.00000010  00000-0  10000-3 0  9992
2 29670  65.5110 308.3114 0022812 348.1220 157.1013  2.13105008 79351
COSMOS 2426 (717)       
1 29671U 06062B   17065.82262911 -.00000011  00000-0  10000-3 0  9996
2 29671  65.5271 308.4017 0015743 161.6750 139.6917  2.13103138 79354
COSMOS 2424 (715)       
1 29672U 06062C   17065.61680463 -.00000012  00000-0  10000-3 0  9991
2 29672  65.5126 308.3333 0015157 160.2562 158.7802  2.13102168 79345
COSMOS 2433 (720)       
1 32275U 07052A   17065.70210500  .00000029  00000-0  10000-3 0  9992
2 32275  65.4618  69.0810 0005103 277.9078 264.1270  2.13104959 72863
COSMOS 2432 (719)       
1 32276U 07052B   17066.10381808  .00000029  00000-0  10000-3 0  9998
2 32276  65.4746  69.1369 0013542 328.0925 115.2250  2.13104174 72875
COSMOS 2434 (721)       
1 32393U 07065A   17066.35535372 -.00000007  00000-0  00000+0 0  9998
2 32393  65.1270 307.4940 0004189  84.7378 128.5899  2.13102945 71589
COSMOS 2436 (723)       
1 32395U 07065C   17065.71486277 -.00000010  00000-0  10000-3 0  9997
2 32395  65.1364 307.5604 0016623   1.8260 128.3108  2.13104310 71500
COSMOS 2443 (725)       
1 33379U 08046B   17065.41642542  .00000028  00000-0  00000+0 0  9999
2 33379  65.3920  68.4823 0015886 188.4176  36.2756  2.13102339 65729
COSMOS 2456 (730)       
1 36111U 09070A   17066.42760213 -.00000018  00000-0  00000+0 0  9992
2 36111  64.1801 187.0552 0003597 331.8662 107.6165  2.13102892 56257
COSMOS 2457 (733)       
1 36112U 09070B   17066.60663302 -.00000021  00000-0  00000+0 0  9998
2 36112  64.1631 186.9722 0006812 156.0697 189.7952  2.13101560 56250
COSMOS 2458 (734)       
1 36113U 09070C   17066.52612922 -.00000020  00000-0  10000-3 0  9996
2 36113  64.1686 186.9800 0002113  47.9364 283.9788  2.13102081 56250
COSMOS 2459 (731)       
1 36400U 10007A   17066.31544199  .00000028  00000-0  10000-3 0  9991
2 36400  65.3715  68.1789 0029074 347.8944 167.6115  2.13102345 54605
COSMOS 2461 (735)       
1 36401U 10007B   17065.77594066  .00000028  00000-0  10000-3 0  9999
2 36401  65.3634  68.1765 0004820  46.3928 325.8175  2.13102329 54599
COSMOS 2460 (732)       
1 36402U 10007C   17066.41387185  .00000028  00000-0  10000-3 0  9994
2 36402  65.3540  68.1282 0002708 295.2008 247.8844  2.13101915 54605
COSMOS 2465 (737)       
1 37138U 10041B   17065.70181730 -.00000011  00000-0  00000-0 0  9997
2 37138  64.7255 307.5562 0033916 170.7649 305.0904  2.13104602 50664
COSMOS 2464 (736)       
1 37139U 10041C   17065.45755714 -.00000012  00000-0  00000+0 0  9999
2 37139  64.7336 307.5631 0024828  12.7522  99.5498  2.13102696 50652
COSMOS 2471 (701K)      
1 37372U 11009A   17066.23045000  .00000028  00000-0  00000+0 0  9996
2 37372  65.3520  68.0826 0009223 245.3063 291.0472  2.13107812 46879
COSMOS 2474 (742)       
1 37829U 11055A   17065.88055252 -.00000009  00000-0  00000+0 0  9994
2 37829  64.5047 187.5960 0006925 246.0678 353.9747  2.13101939 42236
COSMOS 2476 (744)       
1 37867U 11064A   17065.63635122 -.00000005  00000-0  00000+0 0  9995
2 37867  64.4850 187.6785 0016261 242.4996 216.1063  2.13101991 41588
COSMOS 2477 (745)       
1 37868U 11064B   17065.70240807 -.00000006  00000-0  00000-0 0  9998
2 37868  64.4936 187.7198 0014040 243.4584  85.0148  2.13101817 41539
COSMOS 2475 (743)       
1 37869U 11064C   17066.78646336 -.00000022  00000-0  00000+0 0  9992
2 37869  64.5004 187.6739 0018941 272.7884 123.6792  2.13101949 41573
COSMOS 2485 (747)       
1 39155U 13019A   17066.42338987 -.00000017  00000-0  00000+0 0  9999
2 39155  64.6541 187.6592 0016617 236.7752 150.6862  2.13102015 30075
COSMOS 2492 (754)       
1 39620U 14012A   17066.45082907  .00000027  00000-0  10000-3 0  9996
2 39620  65.2444  68.0776 0017128 325.8779 116.5557  2.13103578 23028
COSMOS 2500 (755)       
1 40001U 14032A   17066.29844428  .00000027  00000-0  00000+0 0  9994
2 40001  65.1832  68.0876 0006720 230.6144 318.1448  2.13102932 21232
COSMOS 2501 (702K)      
1 40315U 14075A   17065.54434456 -.00000015  00000-0  00000+0 0  9990
2 40315  64.4593 308.9394 0013547 210.8561 286.8250  2.13098581 17629
COSMOS 2514 (751)       
1 41330U 16008A   17066.01009044  .00000027  00000-0  00000+0 0  9992
2 41330  64.9847  68.2672 0010241 230.8462 276.4323  2.13103528  8397
COSMOS 2516 (753)       
1 41554U 16032A   17066.21585404 -.00000012  00000-0  00000+0 0  9993
2 41554  64.6786 308.6504 0009902 227.1792 331.1238  2.13101784  6008
